[{"OBJECT_NAME":"LUSAT (LO-19)","OBJECT_ID":"1990-005G","EPOCH":"2026-03-09T14:54:14.260896","MEAN_MOTION":14.34087969,"ECCENTRICITY":0.001234,"INCLINATION":98.8938,"RA_OF_ASC_NODE":87.6461,"ARG_OF_PERICENTER":134.6824,"MEAN_ANOMALY":225.5367,"EPHEMERIS_TYPE":0,"CLASSIFICATION_TYPE":"U","NORAD_CAT_ID":20442,"ELEMENT_SET_NO":999,"REV_AT_EPOCH":88812,"BSTAR":8.4338e-5,"MEAN_MOTION_DOT":1.89e-6,"MEAN_MOTION_DDOT":0},{"OBJECT_NAME":"FENGYUN 1C DEB","OBJECT_ID":"1999-025EVQ","EPOCH":"2026-03-08T04:18:16.536384","MEAN_MOTION":14.15258027,"ECCENTRICITY":0.00916196,"INCLINATION":99.2943,"RA_OF_ASC_NODE":209.2642,"ARG_OF_PERICENTER":321.3583,"MEAN_ANOMALY":38.1057,"EPHEMERIS_TYPE":0,"CLASSIFICATION_TYPE":"U","NORAD_CAT_ID":38824,"ELEMENT_SET_NO":999,"REV_AT_EPOCH":70345,"BSTAR":0.0035397581,"MEAN_MOTION_DOT":7.128e-5,"MEAN_MOTION_DDOT":0}]
